{"epoch":1784799577,"count":18318,"objects":[{"id":"26958","name":"PROBA 1","type":"PAYLOAD","l1":"1 26958U 01049B   26203.97812109  .00003404  00000-0  22052-3 0  9999","l2":"2 26958  97.9613 213.7638 0054794   3.4650 356.6945 15.07639028349010"},{"id":"27844","name":"CUTE-1","type":"PAYLOAD","l1":"1 27844U 03031E   26203.79315134  .00000212  00000-0  11057-3 0  9990","l2":"2 27844  98.6747 211.9055 0010855  83.1937 277.0476 14.24354881196741"},{"id":"27848","name":"CUBESAT XI 4","type":"PAYLOAD","l1":"1 27848U 03031J   26202.46414799  .00000171  00000-0  94004-4 0  9992","l2":"2 27848  98.6777 210.2780 0010700 103.0346 257.2027 14.23636890196250"},{"id":"35684","name":"APRIZESAT 4","type":"PAYLOAD","l1":"1 35684U 09041D   26203.92798613  .00000652  00000-0  84260-4 0  9995","l2":"2 35684  98.1397 279.9589 0042736 203.9970 155.9253 14.83922020916665"},{"id":"35686","name":"APRIZESAT 3","type":"PAYLOAD","l1":"1 35686U 09041F   26203.34088258  .00000307  00000-0  32161-4 0  9990","l2":"2 35686  98.2106 358.2597 0060677 311.9174  47.6880 14.96319418921637"},{"id":"36037","name":"PROBA 2","type":"PAYLOAD","l1":"1 36037U 09059B   26203.31587936  .00000149  00000-0  45107-4 0  9992","l2":"2 36037  98.2464  26.1841 0013521 166.8392 193.3161 14.54875759886633"},{"id":"37792","name":"APRIZESAT 5","type":"PAYLOAD","l1":"1 37792U 11044E   26203.54250376  .00000589  00000-0  81787-4 0  9990","l2":"2 37792  98.2447 137.5871 0050768 248.3944 111.1855 14.81135656804022"},{"id":"37793","name":"APRIZESAT 6","type":"PAYLOAD","l1":"1 37793U 11044F   26203.31968863  .00000581  00000-0  89357-4 0  9996","l2":"2 37793  98.2329 114.5327 0042494 335.3434 147.2526 14.76964313802332"},{"id":"39159","name":"PROBA V","type":"PAYLOAD","l1":"1 39159U 13021A   26203.89398043  .00000052  00000-0  40810-4 0  9995","l2":"2 39159  98.3611 180.7425 0004940  41.6695 318.4860 14.23604460686192"},{"id":"39416","name":"APRIZESAT 7","type":"PAYLOAD","l1":"1 39416U 13066A   26203.30586063  .00000915  00000-0  95551-4 0  9997","l2":"2 39416  97.7724 156.0258 0037373  94.6844 265.8644 14.91631194686460"},{"id":"39425","name":"APRIZESAT 8","type":"PAYLOAD","l1":"1 39425U 13066K   26203.58759692  .00000606  00000-0  71438-4 0  9992","l2":"2 39425  97.8232 150.5657 0046123 167.5414 192.6955 14.87704611684935"},{"id":"40014","name":"BUGSAT 1","type":"PAYLOAD","l1":"1 40014U 14033E   26203.94797744  .00005725  00000-0  29945-3 0  9995","l2":"2 40014  98.0422 298.5977 0028786  60.5476 299.8622 15.15936464661254"},{"id":"40016","name":"SAUDISAT 4","type":"PAYLOAD","l1":"1 40016U 14033G   26203.82668019  .00000448  00000-0  65887-4 0  9999","l2":"2 40016  97.7628 348.7386 0043708 318.8019  40.9897 14.79581442651344"},{"id":"40018","name":"APRIZESAT 9","type":"PAYLOAD","l1":"1 40018U 14033J   26203.29799406  .00000480  00000-0  77628-4 0  9999","l2":"2 40018  97.9102 335.6466 0067494  87.5811 273.3123 14.74259030648730"},{"id":"40019","name":"APRIZESAT 10","type":"PAYLOAD","l1":"1 40019U 14033K   26203.29662844  .00000521  00000-0  89313-4 0  9995","l2":"2 40019  97.9688 329.4807 0079274 160.7576 199.6654 14.70917447647413"},{"id":"40076","name":"TDS 1","type":"PAYLOAD","l1":"1 40076U 14037H   26203.46190135  .00007761  00000-0  43438-3 0  9990","l2":"2 40076  98.3838 199.1875 0007439 137.8138 222.3665 15.13751238653569"},{"id":"42829","name":"TECHNOSAT","type":"PAYLOAD","l1":"1 42829U 17042E   26203.02066400  .00002023  00000-0  14586-3 0  9994","l2":"2 42829  97.4323 359.3647 0016805 340.5949  19.4636 15.05136522491942"},{"id":"42831","name":"FLYING LAPTOP","type":"PAYLOAD","l1":"1 42831U 17042G   26203.91139097  .00002841  00000-0  22425-3 0  9997","l2":"2 42831  97.4846 358.1091 0019251   7.9108 352.2417 15.01347345491818"},{"id":"43765","name":"HAWK-A","type":"PAYLOAD","l1":"1 43765U 18099H   26203.12815720  .00006941  00000-0  27591-3 0  9998","l2":"2 43765  97.3892 254.9126 0035371 159.8434 200.4210 15.25028457418424"},{"id":"43794","name":"HAWK-B","type":"PAYLOAD","l1":"1 43794U 18099AN  26203.58591747  .00006175  00000-0  26055-3 0  9993","l2":"2 43794  97.3944 254.7049 0032125 176.0437 184.1060 15.23176256418424"},{"id":"43799","name":"HAWK-C","type":"PAYLOAD","l1":"1 43799U 18099AT  26203.87578856  .00009814  00000-0  34681-3 0  9993","l2":"2 43799  97.3869 256.7411 0041017 156.9695 203.3396 15.28583405419366"},{"id":"46495","name":"SALSAT","type":"PAYLOAD","l1":"1 46495U 20068K   26203.46128258  .00007239  00000-0  24997-3 0  9998","l2":"2 46495  97.8868 208.6876 0009978 167.8214 192.3268 15.30243913320754"},{"id":"47502","name":"HAWK-2C","type":"PAYLOAD","l1":"1 47502U 21006CT  26203.55287972  .00006334  00000-0  18834-3 0  9998","l2":"2 47502  97.2262 247.1623 0008608  80.0904 280.1311 15.35053362304923"},{"id":"47505","name":"HAWK-2A","type":"PAYLOAD","l1":"1 47505U 21006CW  26203.55499399  .00008132  00000-0  24092-3 0  9990","l2":"2 47505  97.2304 247.8633 0008148  83.3724 276.8447 15.35084245304922"},{"id":"47508","name":"HAWK-2B","type":"PAYLOAD","l1":"1 47508U 21006CZ  26203.48272377  .00007472  00000-0  22066-3 0  9995","l2":"2 47508  97.2177 246.0686 0008705  82.1778 278.0454 15.35208398304915"},{"id":"48931","name":"HAWK-3B","type":"PAYLOAD","l1":"1 48931U 21059BE  26203.80203427  .00048373  00000-0  36401-3 0  9993","l2":"2 48931  97.6640  43.9567 0005082 173.6847 186.4481 15.72400561283448"},{"id":"48948","name":"HAWK-3C","type":"PAYLOAD","l1":"1 48948U 21059BX  26203.54716061  .00048755  00000-0  36730-3 0  9994","l2":"2 48948  97.6749  49.4213 0005414 172.9235 187.2106 15.72369513283407"},{"id":"48957","name":"HAWK-3A","type":"PAYLOAD","l1":"1 48957U 21059CG  26203.35611948  .00052619  00000-0  39628-3 0  9994","l2":"2 48957  97.6699  46.3886 0005230 176.1431 183.9873 15.72363250283375"},{"id":"52754","name":"HAWK-5C","type":"PAYLOAD","l1":"1 52754U 22057Y   26203.69907377  .00019398  00000-0  31784-3 0  9996","l2":"2 52754  97.6626   5.6951 0002345 308.1157  51.9883 15.52520925231855"},{"id":"52756","name":"HAWK-5B","type":"PAYLOAD","l1":"1 52756U 22057AA  26203.89226676  .00021804  00000-0  35679-3 0  9998","l2":"2 52756  97.6637   4.2560 0003030 293.6813  66.4121 15.52530461231884"}]}